{
    "links": {
        "self": "http://www.neowsapp.com/rest/v1/neo/3536571?api_key=iIulBulltgU6a56xZRHN4H3l9WmuAYTsLGpBGhQ2"
    },
    "id": "3536571",
    "neo_reference_id": "3536571",
    "name": "(2010 NN)",
    "designation": "2010 NN",
    "nasa_jpl_url": "http://ssd.jpl.nasa.gov/sbdb.cgi?sstr=3536571",
    "absolute_magnitude_h": 28.4,
    "estimated_diameter": {
        "kilometers": {
            "estimated_diameter_min": 0.0055533491,
            "estimated_diameter_max": 0.0124176661
        },
        "meters": {
            "estimated_diameter_min": 5.5533491158,
            "estimated_diameter_max": 12.4176661257
        },
        "miles": {
            "estimated_diameter_min": 0.0034506901,
            "estimated_diameter_max": 0.0077159776
        },
        "feet": {
            "estimated_diameter_min": 18.2196499131,
            "estimated_diameter_max": 40.740375732
        }
    },
    "is_potentially_hazardous_asteroid": false,
    "close_approach_data": [
        {
            "close_approach_date": "2010-07-03",
            "close_approach_date_full": "2010-Jul-03 20:48",
            "epoch_date_close_approach": 1278190080000,
            "relative_velocity": {
                "kilometers_per_second": "7.8289609452",
                "kilometers_per_hour": "28184.259402873",
                "miles_per_hour": "17512.602738413"
            },
            "miss_distance": {
                "astronomical": "0.0035047361",
                "lunar": "1.3633423429",
                "kilometers": "524301.055472107",
                "miles": "325785.5689927966"
            },
            "orbiting_body": "Earth"
        },
        {
            "close_approach_date": "2010-07-04",
            "close_approach_date_full": "2010-Jul-04 05:26",
            "epoch_date_close_approach": 1278221160000,
            "relative_velocity": {
                "kilometers_per_second": "8.4964928378",
                "kilometers_per_hour": "30587.3742162335",
                "miles_per_hour": "19005.8048289702"
            },
            "miss_distance": {
                "astronomical": "0.0051872471",
                "lunar": "2.0178391219",
                "kilometers": "776001.117323677",
                "miles": "482184.7351016626"
            },
            "orbiting_body": "Moon"
        }
    ],
    "orbital_data": {
        "orbit_id": "6",
        "orbit_determination_date": "2017-04-06 08:57:08",
        "first_observation_date": "2010-07-06",
        "last_observation_date": "2010-07-07",
        "data_arc_in_days": 1,
        "observations_used": 11,
        "orbit_uncertainty": "8",
        "minimum_orbit_intersection": ".001464",
        "jupiter_tisserand_invariant": "3.964",
        "epoch_osculation": "2455384.5",
        "eccentricity": ".4484891776779024",
        "semi_major_axis": "1.782966751792943",
        "inclination": "2.259100484075953",
        "ascending_node_longitude": "282.6718627642307",
        "orbital_period": "869.5875111418591",
        "perihelion_distance": ".9833254594542851",
        "perihelion_argument": "331.2453384472892",
        "aphelion_distance": "2.582608044131601",
        "perihelion_time": "2455358.105629685115",
        "mean_anomaly": "10.92698916625599",
        "mean_motion": ".4139893862174751",
        "equinox": "J2000",
        "orbit_class": {
            "orbit_class_type": "APO",
            "orbit_class_description": "Near-Earth asteroid orbits which cross the Earth’s orbit similar to that of 1862 Apollo",
            "orbit_class_range": "a (semi-major axis) > 1.0 AU; q (perihelion) < 1.017 AU"
        }
    },
    "is_sentry_object": false
}